JY1SAT (JO-97)          
1 43803U 18099AX  26068.68634132  .00017774  00000+0  60804-3 0  9996
2 43803  97.4249 131.3625 0004723 256.6795 103.3919 15.30302628398390
STARLINK-33651          
1 63588U 25076V   26068.05796201  .00034605  00000+0  12600-2 0  9990
2 63588  42.9966 325.2776 0001367 264.0688  96.0008 15.27609489 51731
